$$SOE
2461295.500000000, A.D. 2026-Sep-12 00:00:00.0000, -2.474380388959475E+08, 3.168044066287261E+08, -1.029821293050720E+07,
2461302.500000000, A.D. 2026-Sep-19 00:00:00.0000, -2.528334915913393E+08, 3.118461724657275E+08, -1.021719316295235E+07,
2461309.500000000, A.D. 2026-Sep-26 00:00:00.0000, -2.580395987231043E+08, 3.066543730353302E+08, -1.012850063771848E+07,
2461316.500000000, A.D. 2026-Oct-03 00:00:00.0000, -2.630514575121840E+08, 3.012317094489641E+08, -1.003216258981709E+07,
2461323.500000000, A.D. 2026-Oct-10 00:00:00.0000, -2.678640133025157E+08, 2.955808020684930E+08, -9.928202953964010E+06,
2461330.500000000, A.D. 2026-Oct-17 00:00:00.0000, -2.724720442188432E+08, 2.897041998007201E+08, -9.816642462982565E+06,
2461337.500000000, A.D. 2026-Oct-24 00:00:00.0000, -2.768701450809958E+08, 2.836043895195389E+08, -9.697498752880290E+06,
2461344.500000000, A.D. 2026-Oct-31 00:00:00.0000, -2.810527103516917E+08, 2.772838056465567E+08, -9.570786490414500E+06,
2461351.500000000, A.D. 2026-Nov-07 00:00:00.0000, -2.850139156452578E+08, 2.707448400714305E+08, -9.436517549601808E+06,
2461358.500000000, A.D. 2026-Nov-14 00:00:00.0000, -2.887476974521676E+08, 2.639898534182196E+08, -9.294701184656695E+06,
2461365.500000000, A.D. 2026-Nov-21 00:00:00.0000, -2.922477327357853E+08, 2.570211884742564E+08, -9.145343979552791E+06,
2461372.500000000, A.D. 2026-Nov-28 00:00:00.0000, -2.955074192285321E+08, 2.498411829290374E+08, -8.988449731171757E+06,
2461379.500000000, A.D. 2026-Dec-05 00:00:00.0000, -2.985198526136758E+08, 2.424521809411709E+08, -8.824019653899431E+06,
2461386.500000000, A.D. 2026-Dec-12 00:00:00.0000, -3.012778002159353E+08, 2.348565468400769E+08, -8.652052669093341E+06,
2461393.500000000, A.D. 2026-Dec-19 00:00:00.0000, -3.037736728585653E+08, 2.270566812019162E+08, -8.472545610172346E+06,
2461400.500000000, A.D. 2026-Dec-26 00:00:00.0000, -3.059994947686026E+08, 2.190550387064545E+08, -8.285493406374574E+06,
2461407.500000000, A.D. 2027-Jan-02 00:00:00.0000, -3.079468709577468E+08, 2.108541479025526E+08, -8.090889291601345E+06,
2461414.500000000, A.D. 2027-Jan-09 00:00:00.0000, -3.096069516265336E+08, 2.024566332736346E+08, -7.888725053633705E+06,
2461421.500000000, A.D. 2027-Jan-16 00:00:00.0000, -3.109703931791145E+08, 1.938652400461952E+08, -7.678991333422519E+06,
2461428.500000000, A.D. 2027-Jan-23 00:00:00.0000, -3.120273153819962E+08, 1.850828622142133E+08, -7.461677990808338E+06,
2461435.500000000, A.D. 2027-Jan-30 00:00:00.0000, -3.127672540115781E+08, 1.761125743453137E+08, -7.236774569518797E+06,
2461442.500000000, A.D. 2027-Feb-06 00:00:00.0000, -3.131791080411951E+08, 1.669576682505369E+08, -7.004270887854822E+06,
2461449.500000000, A.D. 2027-Feb-13 00:00:00.0000, -3.132510812323543E+08, 1.576216966346146E+08, -6.764157632073581E+06,
2461456.500000000, A.D. 2027-Feb-20 00:00:00.0000, -3.129706198171799E+08, 1.481085240205195E+08, -6.516426823447376E+06,
2461463.500000000, A.D. 2027-Feb-27 00:00:00.0000, -3.123243441054282E+08, 1.384223830506902E+08, -6.261072577652976E+06,
2461470.500000000, A.D. 2027-Mar-06 00:00:00.0000, -3.112979701154584E+08, 1.285679396817189E+08, -5.998092308955297E+06,
2461477.500000000, A.D. 2027-Mar-13 00:00:00.0000, -3.098762218394471E+08, 1.185503712574873E+08, -5.727488105575010E+06,
2461484.500000000, A.D. 2027-Mar-20 00:00:00.0000, -3.080427341806668E+08, 1.083754590055644E+08, -5.449268293601103E+06,
2461491.500000000, A.D. 2027-Mar-27 00:00:00.0000, -3.057799451543639E+08, 9.804969735162887E+07, -5.163449319192667E+06,
2461498.500000000, A.D. 2027-Apr-03 00:00:00.0000, -3.030689758265190E+08, 8.758042365698659E+07, -4.870058054702293E+06,
2461505.500000000, A.D. 2027-Apr-10 00:00:00.0000, -2.998894965029380E+08, 7.697597295617655E+07, -4.569134637656156E+06,
2461512.500000000, A.D. 2027-Apr-17 00:00:00.0000, -2.962195776449746E+08, 6.624586338285926E+07, -4.260735979651436E+06,
2461519.500000000, A.D. 2027-Apr-24 00:00:00.0000, -2.920355239146341E+08, 5.540101939286651E+07, -3.944940128801964E+06,
2461526.500000000, A.D. 2027-May-01 00:00:00.0000, -2.873116896238668E+08, 4.445404187170477E+07, -3.621851731616253E+06,
2461533.500000000, A.D. 2027-May-08 00:00:00.0000, -2.820202741323077E+08, 3.341953737539395E+07, -3.291608847519955E+06,
2461540.500000000, A.D. 2027-May-15 00:00:00.0000, -2.761310981246056E+08, 2.231452212484158E+07, -2.954391274247425E+06,
2461547.500000000, A.D. 2027-May-22 00:00:00.0000, -2.696113628491307E+08, 1.115891694827174E+07, -2.610430942791866E+06,
2461554.500000000, A.D. 2027-May-29 00:00:00.0000, -2.624253913594147E+08, -2.384413623373595E+04, -2.260025455353315E+06,
2461561.500000000, A.D. 2027-Jun-05 00:00:00.0000, -2.545343563973205E+08, -1.120605740780819E+07, -1.903555442190053E+06,
2461568.500000000, A.D. 2027-Jun-12 00:00:00.0000, -2.458960075960761E+08, -2.235480434664838E+07, -1.541506645596466E+06,
2461575.500000000, A.D. 2027-Jun-19 00:00:00.0000, -2.364644174079522E+08, -3.343076698678264E+07, -1.174498281475591E+06,
2461582.500000000, A.D. 2027-Jun-26 00:00:00.0000, -2.261897780793804E+08, -4.438673719699229E+07, -8.033197310577519E+05,
2461589.500000000, A.D. 2027-Jul-03 00:00:00.0000, -2.150183037812959E+08, -5.516573465760858E+07, -4.289782399388365E+05,
2461596.500000000, A.D. 2027-Jul-10 00:00:00.0000, -2.028923266073749E+08, -6.569862650298713E+07, -5.276115182313323E+04,
2461603.500000000, A.D. 2027-Jul-17 00:00:00.0000, -1.897507299143473E+08, -7.590111819977951E+07, 3.236827148098573E+05,
2461610.500000000, A.D. 2027-Jul-24 00:00:00.0000, -1.755299485570865E+08, -8.566996536359307E+07, 6.982366700013801E+05,
2461617.500000000, A.D. 2027-Jul-31 00:00:00.0000, -1.601658991714268E+08, -9.487825228257021E+07, 1.068177612768561E+06,
2461624.500000000, A.D. 2027-Aug-07 00:00:00.0000, -1.435974071686197E+08, -1.033696225685297E+08, 1.429997656178430E+06,
2461631.500000000, A.D. 2027-Aug-14 00:00:00.0000, -1.257719934563773E+08, -1.109514908678006E+08, 1.779179433205456E+06,
2461638.500000000, A.D. 2027-Aug-21 00:00:00.0000, -1.066552725957392E+08, -1.173876210179699E+08, 2.109923817084812E+06,
2461645.500000000, A.D. 2027-Aug-28 00:00:00.0000, -8.624564035540214E+07, -1.223912067194775E+08, 2.414844691783756E+06,
2461652.500000000, A.D. 2027-Sep-04 00:00:00.0000, -6.459615681904175E+07, -1.256210251203744E+08, 2.684681049255431E+06,
2461659.500000000, A.D. 2027-Sep-11 00:00:00.0000, -4.184490415972713E+07, -1.266856059654019E+08, 2.908142978447914E+06,
2461666.500000000, A.D. 2027-Sep-18 00:00:00.0000, -1.825232164289055E+07, -1.251634191161835E+08, 3.072110860334568E+06,
2461673.500000000, A.D. 2027-Sep-25 00:00:00.0000, 5.762624218855298E+06, -1.206489676410865E+08, 3.162513061026745E+06,
2461680.500000000, A.D. 2027-Oct-02 00:00:00.0000, 2.960620504827525E+07, -1.128305366886123E+08, 3.166192199848190E+06,
2461687.500000000, A.D. 2027-Oct-09 00:00:00.0000, 5.254072025813286E+07, -1.015889207193536E+08, 3.073717702220343E+06,
2461694.500000000, A.D. 2027-Oct-16 00:00:00.0000, 7.378022486932911E+07, -8.707982938613236E+07, 2.882336532658741E+06,
2461701.500000000, A.D. 2027-Oct-23 00:00:00.0000, 9.263242702512653E+07, -6.974865716693720E+07, 2.597576527734283E+06,
2461708.500000000, A.D. 2027-Oct-30 00:00:00.0000, 1.086266208457077E+08, -5.025381853773405E+07, 2.232370347662300E+06,
2461715.500000000, A.D. 2027-Nov-06 00:00:00.0000, 1.215678708794077E+08, -2.933215247144983E+07, 1.804049681827001E+06,
2461722.500000000, A.D. 2027-Nov-13 00:00:00.0000, 1.315065381064993E+08, -7.671634944463236E+06, 1.330798895731999E+06,
2461729.500000000, A.D. 2027-Nov-20 00:00:00.0000, 1.386596798850314E+08, 1.416426320753703E+07, 8.290262438013908E+05,
2461736.500000000, A.D. 2027-Nov-27 00:00:00.0000, 1.433287361648848E+08, 3.575731271071844E+07, 3.121195298666675E+05,
2461743.500000000, A.D. 2027-Dec-04 00:00:00.0000, 1.458380353977190E+08, 5.682051840572350E+07, -2.097223220640123E+05,
2461750.500000000, A.D. 2027-Dec-11 00:00:00.0000, 1.464982072183934E+08, 7.717056805180623E+07, -7.290936068181992E+05,
2461757.500000000, A.D. 2027-Dec-18 00:00:00.0000, 1.455887816261235E+08, 9.669972409248839E+07, -1.240806499624155E+06,
2461764.500000000, A.D. 2027-Dec-25 00:00:00.0000, 1.433526706644320E+08, 1.153525331785520E+08, -1.741337655100375E+06,
2461771.500000000, A.D. 2028-Jan-01 00:00:00.0000, 1.399969298329383E+08, 1.331083868852640E+08, -2.228371678866096E+06,
$$EOE